# RS 1236-3145-0-0-548

## System Information
| | |
|:---|:---|
| Age (Years) | 6703600000 |
| System mass (Kg) | 3.57925712357182e+32 |
| Semi-major axis of outer known planet (m) | 1806830306656.44 |
| Stars | 1 |
| Known planets | 8 |
| Known dwarf planets | 0 |
| Known natural satellites | 127 |
| Known minor planets | 1000 |
| Known comets | 0 |
| Identified rounded satellites | 20 |
| Spectral type |  |

## Objects

### RS 1236-3145-0-0-548 - Carbon star
 * Physical characteristics
| | |
|:---|---:|
| Bolometric magnitude | -9.97163852771685 |
| Spectral classification | C-R5 |
| Equatorial radius (m) | 1705647690000 |
| Flattening | 0.066787 |
| Volume (m^3) | 1.93971257180828e+37 |
| Mass (Kg) | 3.579246e+32 |
| Average density (Kg/m^3) | 1.84524555442938e-05 |
| Equatorial surface gravity (m/s^2) | 0.00821142652313851 |
| Escape velocity (from the surface) (m/s) | 167366.667414966 |
| Temperature (∼K) | 3330 |
| Luminosity (W) | 2.935119e+32 |
| Obliquity | 100.28 |
| RotationPeriod (s) | 205783200 |

### 1 - Carbon planet
 * Physical characteristics
| | |
|:---|---:|
| Mean radius (m) | 7266638.86800897 |
| Equatorial radius (m) | 7289300 |
| Polar radius (m) | 7221527.73325 |
| Flattening | 0.00929750000000006 |
| Volume (m^3) | 1.6072718621692e+21 |
| Mass (Kg) | 8.073179406e+24 |
| Mean density (Kg/m^3) | 5022.9084425732 |
| Surface gravity (m/s^2) | 10.1409508613389 |
| Escape velocity (m/s) | 12158.9829437793 |
| Synodic rotation period (s) | 54134.0658102541 |
| Sidereal rotation period (s) | 54104.4 |
| Axial tilt | 25.778 |
| Albedo (Bond) | 0.15 |
| Albedo (geometric) | 0.36 |
 * Surface temperature
| Min | Mean | Max |
|:---:|:---:|:---:|
| 2299.58847681009 | 2354.4764488174 | 2413.64659546308 |

 * Orbital characteristics
| | |
|:---|---:|
| Epoch | 2451545 |
| Reference System | Equator |
| Aphelion (m) | 1897253713501.3 |
| Perihelion (m) | 1716406899811.58 |
| Semi-major axis (a) (m) | 1806830306656.44 |
| Eccentricity (e) | 0.0500453233 |
| Orbital period (sidereal) (P) (s) | 98729518.0930635 |
| Mean anomaly | 170.871622 |
| Inclination (i) | -0.538643752 |
| Longitude of ascending node (次) | 158.511384 |
| Argument of perihelion (肋) (secondary) | 12.3751422 |

### 2 - Class V(Silicate clouds) Gas giant
 * Physical characteristics
| | |
|:---|---:|
| Mean radius (m) | 65836846.0848739 |
| Equatorial radius (m) | 67959000 |
| Polar radius (m) | 61789274.226 |
| Flattening | 0.0907860000000001 |
| Volume (m^3) | 1.19535158779596e+24 |
| Mass (Kg) | 4.095714186e+26 |
| Mean density (Kg/m^3) | 342.636779656757 |
| Surface gravity (m/s^2) | 5.9189055058478 |
| Escape velocity (m/s) | 28363.4588607212 |
| Synodic rotation period (s) | 55850.9263676117 |
| Sidereal rotation period (s) | 55836 |
| Axial tilt | 70.672 |
| Albedo (Bond) | 0.3 |
| Albedo (geometric) | 0.36 |
 * Surface temperature
| Min | Mean | Max |
|:---:|:---:|:---:|
| 1620.6624023507 | 1688.44635001341 | 1765.51507263148 |

 * Orbital characteristics
| | |
|:---|---:|
| Epoch | 2451545 |
| Reference System | Equator |
| Aphelion (m) | 3232480895155.64 |
| Perihelion (m) | 2723818854063.35 |
| Semi-major axis (a) (m) | 2978149874609.49 |
| Eccentricity (e) | 0.0853989998 |
| Orbital period (sidereal) (P) (s) | 208925065.078521 |
| Mean anomaly | 17.4078861 |
| Inclination (i) | -0.897616154 |
| Longitude of ascending node (次) | 19.1031798 |
| Argument of perihelion (肋) (secondary) | 266.621429 |

### 3 - Rocky planet
 * Physical characteristics
| | |
|:---|---:|
| Mean radius (m) | 3325479.52491298 |
| Equatorial radius (m) | 3330200 |
| Polar radius (m) | 3316058.63872 |
| Flattening | 0.00424639999999995 |
| Volume (m^3) | 1.54046361142203e+20 |
| Mass (Kg) | 6.802898847e+23 |
| Mean density (Kg/m^3) | 4416.13732162106 |
| Surface gravity (m/s^2) | 4.09410620181506 |
| Escape velocity (m/s) | 5221.91391604353 |
| Synodic rotation period (s) | 85106.8478469046 |
| Sidereal rotation period (s) | 85093.2 |
| Axial tilt | -25.183 |
| Albedo (Bond) | 0.15 |
| Albedo (geometric) | 0.36 |
 * Surface temperature
| Min | Mean | Max |
|:---:|:---:|:---:|
| 1355.70851118841 | 1391.31537035549 | 1430.11292852873 |

 * Orbital characteristics
| | |
|:---|---:|
| Epoch | 2451545 |
| Reference System | Equator |
| Aphelion (m) | 5860789398172.83 |
| Perihelion (m) | 5227030544077.83 |
| Semi-major axis (a) (m) | 5543909971125.33 |
| Eccentricity (e) | 0.057158112 |
| Orbital period (sidereal) (P) (s) | 530634178.110697 |
| Mean anomaly | 22.5847742 |
| Inclination (i) | 0.135326739 |
| Longitude of ascending node (次) | -84.1183537 |
| Argument of perihelion (肋) (secondary) | 6.31532173 |

### 4 - Hoptune
 * Physical characteristics
| | |
|:---|---:|
| Mean radius (m) | 29739412.4404412 |
| Equatorial radius (m) | 30131000 |
| Polar radius (m) | 28971438.596 |
| Flattening | 0.038484 |
| Volume (m^3) | 1.10175685453202e+23 |
| Mass (Kg) | 6.980272296e+25 |
| Mean density (Kg/m^3) | 633.558327074348 |
| Surface gravity (m/s^2) | 5.13157874066102 |
| Escape velocity (m/s) | 17585.1982664318 |
| Synodic rotation period (s) | 65733.2298114886 |
| Sidereal rotation period (s) | 65728.8 |
| Axial tilt | 5.47 |
| Albedo (Bond) | 0.3 |
| Albedo (geometric) | 0.36 |
 * Surface temperature
| Min | Mean | Max |
|:---:|:---:|:---:|
| 967.067360804258 | 1010.258171246 | 1059.80604747309 |

 * Orbital characteristics
| | |
|:---|---:|
| Epoch | 2451545 |
| Reference System | Equator |
| Aphelion (m) | 9078364781037.36 |
| Perihelion (m) | 7559068730676.51 |
| Semi-major axis (a) (m) | 8318716755856.93 |
| Eccentricity (e) | 0.0913179337 |
| Orbital period (sidereal) (P) (s) | 975338640.660205 |
| Mean anomaly | 283.14865 |
| Inclination (i) | 1.5734441 |
| Longitude of ascending node (次) | 97.6874547 |
| Argument of perihelion (肋) (secondary) | 51.6503103 |

### 5 - Rocky planet
 * Physical characteristics
| | |
|:---|---:|
| Mean radius (m) | 5370062.37170148 |
| Equatorial radius (m) | 5382400 |
| Polar radius (m) | 5345471.89184 |
| Flattening | 0.00686090000000005 |
| Volume (m^3) | 6.4867416147551e+20 |
| Mass (Kg) | 3.0669481818e+24 |
| Mean density (Kg/m^3) | 4728.02581626459 |
| Surface gravity (m/s^2) | 7.06578181097164 |
| Escape velocity (m/s) | 8721.33751432357 |
| Synodic rotation period (s) | 64714.5972335256 |
| Sidereal rotation period (s) | 64713.6 |
| Axial tilt | 3.8562 |
| Albedo (Bond) | 0.15 |
| Albedo (geometric) | 0.36 |
 * Surface temperature
| Min | Mean | Max |
|:---:|:---:|:---:|
| 652.555124797133 | 662.40866492272 | 672.73027889226 |

 * Orbital characteristics
| | |
|:---|---:|
| Epoch | 2451545 |
| Reference System | Equator |
| Aphelion (m) | 22697754138929.6 |
| Perihelion (m) | 21335756774473.3 |
| Semi-major axis (a) (m) | 22016755456701.4 |
| Eccentricity (e) | 0.0309309282 |
| Orbital period (sidereal) (P) (s) | 4199532458.5413 |
| Mean anomaly | 354.198512 |
| Inclination (i) | -0.322597183 |
| Longitude of ascending node (次) | -27.8344614 |
| Argument of perihelion (肋) (secondary) | 3.43020813 |

### 6 - Ice giant
 * Physical characteristics
| | |
|:---|---:|
| Mean radius (m) | 25082725.0181326 |
| Equatorial radius (m) | 25374000 |
| Polar radius (m) | 24510167.544 |
| Flattening | 0.034044 |
| Volume (m^3) | 6.61017200207495e+22 |
| Mass (Kg) | 1.7760636363e+26 |
| Mean density (Kg/m^3) | 2686.86448059519 |
| Surface gravity (m/s^2) | 18.4113814158306 |
| Escape velocity (m/s) | 30566.988469435 |
| Synodic rotation period (s) | 31430.9341577782 |
| Sidereal rotation period (s) | 31430.88 |
| Axial tilt | -59.732 |
| Albedo (Bond) | 0.3 |
| Albedo (geometric) | 0.36 |
 * Surface temperature
| Min | Mean | Max |
|:---:|:---:|:---:|
| 379.245217378154 | 380.597997305044 | 381.965357508651 |

 * Orbital characteristics
| | |
|:---|---:|
| Epoch | 2451545 |
| Reference System | Equator |
| Aphelion (m) | 59031097219560.4 |
| Perihelion (m) | 58193319138122.2 |
| Semi-major axis (a) (m) | 58612208178841.3 |
| Eccentricity (e) | 0.00714678825 |
| Orbital period (sidereal) (P) (s) | 18241182581.016 |
| Mean anomaly | 341.676871 |
| Inclination (i) | -1.66435017 |
| Longitude of ascending node (次) | -44.4219289 |
| Argument of perihelion (肋) (secondary) | 337.978613 |

### 7 - Ocean planet
 * Physical characteristics
| | |
|:---|---:|
| Mean radius (m) | 7816492.14531243 |
| Equatorial radius (m) | 7842700 |
| Polar radius (m) | 7764338.87868 |
| Flattening | 0.00999159999999999 |
| Volume (m^3) | 2.00043431956512e+21 |
| Mass (Kg) | 8.536619798e+24 |
| Mean density (Kg/m^3) | 4267.38319499327 |
| Surface gravity (m/s^2) | 9.26318756085843 |
| Escape velocity (m/s) | 12053.9123178779 |
| Synodic rotation period (s) | 56440.8967615551 |
| Sidereal rotation period (s) | 56440.8 |
| Axial tilt | -7.1049 |
| Albedo (Bond) | 0.54 |
| Albedo (geometric) | 0.36 |
 * Surface temperature
| Min | Mean | Max |
|:---:|:---:|:---:|
| 281.455199417488 | 286.507640354959 | 291.847680205675 |

 * Orbital characteristics
| | |
|:---|---:|
| Epoch | 2451545 |
| Reference System | Equator |
| Aphelion (m) | 90089911057608.8 |
| Perihelion (m) | 83679036037184.2 |
| Semi-major axis (a) (m) | 86884473547396.5 |
| Eccentricity (e) | 0.0368930993 |
| Orbital period (sidereal) (P) (s) | 32921849614.5116 |
| Mean anomaly | 158.751051 |
| Inclination (i) | 1.48521513 |
| Longitude of ascending node (次) | 102.472913 |
| Argument of perihelion (肋) (secondary) | 137.619055 |

### 8 - Super-Neptune
 * Physical characteristics
| | |
|:---|---:|
| Mean radius (m) | 54578391.3924277 |
| Equatorial radius (m) | 55943000 |
| Polar radius (m) | 51948222.256 |
| Flattening | 0.0714080000000001 |
| Volume (m^3) | 6.81005788720978e+23 |
| Mass (Kg) | 4.3043818058e+26 |
| Mean density (Kg/m^3) | 632.062440156965 |
| Surface gravity (m/s^2) | 9.17962640203934 |
| Escape velocity (m/s) | 32047.9590554309 |
| Synodic rotation period (s) | 48873.6382290648 |
| Sidereal rotation period (s) | 48873.6 |
| Axial tilt | -4.9344 |
| Albedo (Bond) | 0.3 |
| Albedo (geometric) | 0.36 |
 * Surface temperature
| Min | Mean | Max |
|:---:|:---:|:---:|
| 237.879188553658 | 252.483111774575 | 270.155707749144 |

 * Orbital characteristics
| | |
|:---|---:|
| Epoch | 2451545 |
| Reference System | Equator |
| Aphelion (m) | 150040389929440 |
| Perihelion (m) | 116330283297084 |
| Semi-major axis (a) (m) | 133185336613262 |
| Eccentricity (e) | 0.126553371 |
| Orbital period (sidereal) (P) (s) | 62482058011.7021 |
| Mean anomaly | 272.444675 |
| Inclination (i) | 0.940250495 |
| Longitude of ascending node (次) | 154.809773 |
| Argument of perihelion (肋) (secondary) | 137.664289 |
